SKY MEXICO-1            
1 40664U 15026B   26060.43154617  .00000000  00000+0  00000+0 0  9997
2 40664   0.0266 137.8747 0002242 219.7655 238.1871  1.00267710 39374
METEOSAT-11 (MSG-4)     
1 40732U 15034A   26060.36850338  .00000045  00000+0  00000+0 0  9996
2 40732   2.9298  71.7010 0001794 270.4204 319.1619  1.00265141  6134
STAR ONE C4             
1 40733U 15034B   26060.46140034 -.00000283  00000+0  00000+0 0  9998
2 40733   0.0403 357.6419 0002974 358.0342 259.6609  1.00269973 38935
WGS F7 (USA 263)        
1 40746U 15036A   26060.48594931 -.00000002  00000+0  00000+0 0  9994
2 40746   0.0154 114.3627 0000393 337.0538  57.8002  1.00264246 38795
INTELSAT 34 (IS-34)     
1 40874U 15039A   26060.43613951 -.00000304  00000+0  00000+0 0  9993
2 40874   0.0149 194.5358 0000086 151.5786 274.6253  1.00273289 38542
EUTELSAT 8 WEST B       
1 40875U 15039B   26060.37425925 -.00000084  00000+0  00000+0 0  9994
2 40875   0.0663 349.9344 0003837 350.7943 305.1665  1.00271489 38570
GSAT-6                  
1 40880U 15041A   26060.50618310 -.00000177  00000+0  00000+0 0  9993
2 40880   1.6401  84.0199 0003179 261.2551  78.7151  1.00269124 38518
INMARSAT 5-F3           
1 40882U 15042A   26060.37037197  .00000032  00000+0  00000+0 0  9998
2 40882   0.0177 123.1298 0001727 256.0619  92.9130  1.00269615 38499
TJS-1                   
1 40892U 15046A   26060.50708970 -.00000174  00000+0  00000+0 0  9990
2 40892   0.0454  85.5819 0004178 289.7020 121.6024  1.00271212 38498
EXPRESS-AM8             
1 40895U 15048A   26059.65991999  .00000000  00000+0  00000+0 0  9991
2 40895   0.0230 152.9676 0000213 152.2105  76.8771  1.00269735 38258
SKY MUSTER 1 (NBN1A)    
1 40940U 15054A   26060.40363935  .00000000  00000+0  00000+0 0  9997
2 40940   0.0172 162.4290 0001765 173.1339 109.1950  1.00270070 38170
ARSAT 2                 
1 40941U 15054B   26060.43111281 -.00000243  00000+0  00000+0 0  9996
2 40941   0.0323  74.8892 0002111 253.4194 265.0969  1.00271340 38229
MORELOS 3               
1 40946U 15056A   26060.51136552 -.00000059  00000+0  00000+0 0  9995
2 40946   3.1065  12.0119 0002859   2.6374 215.6326  1.00272188 38207
APSTAR-9                
1 40982U 15059A   26060.55305894 -.00000284  00000+0  00000+0 0  9999
2 40982   0.0487 315.6329 0002235 303.5732 241.2438  1.00271908 38045
TURKSAT 4B              
1 40984U 15060A   26060.45702628  .00000097  00000+0  00000+0 0  9999
2 40984   0.0161 223.3755 0002356 109.3620  41.0149  1.00269442 38018
ZHONGXING-2C            
1 41021U 15063A   26060.39627267 -.00000342  00000+0  00000+0 0  9997
2 41021   0.0231 201.6278 0007504  25.3315 178.2955  1.00274703 37895
GSAT-15                 
1 41028U 15065A   26060.51209998 -.00000276  00000+0  00000+0 0  9993
2 41028   0.0966 270.0443 0000759  71.3012  95.8011  1.00269657 37711
BADR-7 (ARABSAT-6B)     
1 41029U 15065B   26060.30969227  .00000126  00000+0  00000+0 0  9992
2 41029   0.0329 214.9648 0003708  50.0801  31.5259  1.00269761 37689
LAOSAT 1                
1 41034U 15067A   26060.40129936 -.00000361  00000+0  00000+0 0  9998
2 41034   0.0410 302.2030 0002182 358.2683 131.6655  1.00274405 37771
TELSTAR 12V             
1 41036U 15068A   26060.43239193 -.00000137  00000+0  00000+0 0  9992
2 41036   0.0126 109.9177 0002632 231.9111 318.0452  1.00271305 37541
ELEKTRO-L 2             
1 41105U 15074A   26060.37295924 -.00000133  00000+0  00000+0 0  9999
2 41105   6.4225  71.8480 0003479 234.1402 332.9412  1.00270670 37422
COSMOS 2513             
1 41121U 15075A   26059.39339464 -.00000155  00000+0  00000+0 0  9990
2 41121   0.0449 105.8732 0002372 212.0412  62.1356  1.00271387 37451
EXPRESS-AMU1            
1 41191U 15082A   26060.35183495  .00000000  00000+0  00000+0 0  9992
2 41191   0.0266 141.9223 0003330 182.3462 357.6564  1.00268077 37185
GAOFEN-4                
1 41194U 15083A   26060.46811966 -.00000353  00000+0  00000+0 0  9991
2 41194   0.3713  83.7669 0003687  87.5138 262.1855  1.00270561 37449
BELINTERSAT-1           
1 41238U 16001A   26060.45737294  .00000088  00000+0  00000+0 0  9995
2 41238   0.0582 281.5868 0001396  56.7372  37.0930  1.00273961 37159
IRNSS-1E                
1 41241U 16003A   26051.61610370 -.00000285  00000+0  00000+0 0  9994
2 41241  32.9803  61.4290 0018329 191.6255 230.9097  1.00267075 36910
EUTELSAT 9B             
1 41310U 16005A   26060.36850338  .00000043  00000+0  00000+0 0  9996
2 41310   0.0405  71.2519 0004575 246.6923 342.8503  1.00272656 37035
SES-9                   
1 41380U 16013A   26060.39731267 -.00000363  00000+0  00000+0 0  9990
2 41380   0.0374 293.5424 0001379  95.0708  21.8884  1.00271453 36351
EUTELSAT 65 WEST A      
1 41382U 16014A   26060.43423284 -.00000295  00000+0  00000+0 0  9999
2 41382   0.0658  37.0925 0002300 293.5071 279.7410  1.00273080 36456
IRNSS-1F                
1 41384U 16015A   26060.23966530  .00000140  00000+0  00000+0 0  9994
2 41384   5.0765  99.3499 0019258 187.7673 350.6178  1.00269565 36588
